CTC1_L_00180016-03
1 81615U 23040XK  26037.47803241  .00000000  00000+0  00000-0 0  9996
2 81615  95.0000 180.0000 0000000   0.0000   0.0000 13.89609337    16
CTC1_L_00180016-04
1 81616U 26518HB  26037.47803241  .00000000  00000+0  00000-0 0  9990
2 81616  95.0000 180.0000 0000000   0.0000  90.0000 13.89609337    16
CTC1_L_00180017-01
1 81617U 25489KV  26037.47803241  .00000000  00000+0  00000-0 0  9997
2 81617  95.0000 192.0000 0000000   0.0000 192.0000 13.89609337    13
CTC1_L_00180017-02
1 81618U 22733PD  26037.47803241  .00000000  00000+0  00000-0 0  9997
2 81618  95.0000 192.0000 0000000   0.0000 282.0000 13.89609337    14
CTC1_L_00180017-03
1 81619U 23962YD  26037.47803241  .00000000  00000+0  00000-0 0  9993
2 81619  95.0000 192.0000 0000000   0.0000  12.0000 13.89609337    16
CTC1_L_00180017-04
1 81620U 25308MZ  26037.47803241  .00000000  00000+0  00000-0 0  9991
2 81620  95.0000 192.0000 0000000   0.0000 102.0000 13.89609337    18
CTC1_L_00180018-01
1 81621U 26411JF  26037.47803241  .00000000  00000+0  00000-0 0  9998
2 81621  95.0000 204.0000 0000000   0.0000 204.0000 13.89609337    16
CTC1_L_00180018-02
1 81622U 23312NF  26037.47803241  .00000000  00000+0  00000-0 0  9996
2 81622  95.0000 204.0000 0000000   0.0000 294.0000 13.89609337    16
CTC1_L_00180018-03
1 81623U 24914JC  26037.47803241  .00000000  00000+0  00000-0 0  9996
2 81623  95.0000 204.0000 0000000   0.0000  24.0000 13.89609337    18
CTC1_L_00180018-04
1 81624U 26995OG  26037.47803241  .00000000  00000+0  00000-0 0  9998
2 81624  95.0000 204.0000 0000000   0.0000 114.0000 13.89609337    19
CTC1_L_00180019-01
1 81625U 25124ID  26037.47803241  .00000000  00000+0  00000-0 0  9992
2 81625  95.0000 216.0000 0000000   0.0000 216.0000 13.89609337    16
CTC1_L_00180019-02
1 81626U 26657IF  26037.47803241  .00000000  00000+0  00000-0 0  9995
2 81626  95.0000 216.0000 0000000   0.0000 306.0000 13.89609337    17
CTC1_L_00180019-03
1 81627U 23406FN  26037.47803241  .00000000  00000+0  00000-0 0  9995
2 81627  95.0000 216.0000 0000000   0.0000  36.0000 13.89609337    18
CTC1_L_00180019-04
1 81628U 24886DB  26037.47803241  .00000000  00000+0  00000-0 0  9999
2 81628  95.0000 216.0000 0000000   0.0000 126.0000 13.89609337    19
CTC1_L_00180020-01
1 81629U 26733DA  26037.47803241  .00000000  00000+0  00000-0 0  9993
2 81629  95.0000 228.0000 0000000   0.0000 228.0000 13.89609337    16
CTC1_L_00180020-02
1 81630U 25787RV  26037.47803241  .00000000  00000+0  00000-0 0  9993
2 81630  95.0000 228.0000 0000000   0.0000 318.0000 13.89609337    18
CTC1_L_00180020-03
1 81631U 23672MG  26037.47803241  .00000000  00000+0  00000-0 0  9995
2 81631  95.0000 228.0000 0000000   0.0000  48.0000 13.89609337    19
CTC1_L_00180020-04
1 81632U 23278AC  26037.47803241  .00000000  00000+0  00000-0 0  9998
2 81632  95.0000 228.0000 0000000   0.0000 138.0000 13.89609337    10
CTC1_L_00180021-01
1 81633U 23642GR  26037.47803241  .00000000  00000+0  00000-0 0  9994
2 81633  95.0000 240.0000 0000000   0.0000 240.0000 13.89609337    19
CTC1_L_00180021-02
1 81634U 23104VB  26037.47803241  .00000000  00000+0  00000-0 0  9998
2 81634  95.0000 240.0000 0000000   0.0000 330.0000 13.89609337    10
CTC1_L_00180021-03
1 81635U 24252YP  26037.47803241  .00000000  00000+0  00000-0 0  9994
2 81635  95.0000 240.0000 0000000   0.0000  60.0000 13.89609337    11
CTC1_L_00180021-04
1 81636U 22697VE  26037.47803241  .00000000  00000+0  00000-0 0  9996
2 81636  95.0000 240.0000 0000000   0.0000 150.0000 13.89609337    12
CTC1_L_00180022-01
1 81637U 24287XU  26037.47803241  .00000000  00000+0  00000-0 0  9994
2 81637  95.0000 252.0000 0000000   0.0000 252.0000 13.89609337    19
CTC1_L_00180022-02
1 81638U 26407QV  26037.47803241  .00000000  00000+0  00000-0 0  9991
2 81638  95.0000 252.0000 0000000   0.0000 342.0000 13.89609337    10
CTC1_L_00180022-03
1 81639U 24788IY  26037.47803241  .00000000  00000+0  00000-0 0  9992
2 81639  95.0000 252.0000 0000000   0.0000  72.0000 13.89609337    11
CTC1_L_00180022-04
1 81640U 22506YN  26037.47803241  .00000000  00000+0  00000-0 0  9990
2 81640  95.0000 252.0000 0000000   0.0000 162.0000 13.89609337    13
CTC1_L_00180023-01
1 81641U 22685OB  26037.47803241  .00000000  00000+0  00000-0 0  9999
2 81641  95.0000 264.0000 0000000   0.0000 264.0000 13.89609337    10
CTC1_L_00180023-02
1 81642U 26083Z   26037.47803241  .00000000  00000+0  00000-0 0  9996
2 81642  95.0000 264.0000 0000000   0.0000 354.0000 13.89609337    11
CTC1_L_00180023-03
1 81643U 24459IC  26037.47803241  .00000000  00000+0  00000-0 0  9992
2 81643  95.0000 264.0000 0000000   0.0000  84.0000 13.89609337    12
CTC1_L_00180023-04
1 81644U 24401WA  26037.47803241  .00000000  00000+0  00000-0 0  9990
2 81644  95.0000 264.0000 0000000   0.0000 174.0000 13.89609337    13
CTC1_L_00180024-01
1 81645U 25168Q   26037.47803241  .00000000  00000+0  00000-0 0  9992
2 81645  95.0000 276.0000 0000000   0.0000 276.0000 13.89609337    10
CTC1_L_00180024-02
1 81646U 26812EF  26037.47803241  .00000000  00000+0  00000-0 0  9990
2 81646  95.0000 276.0000 0000000   0.0000   6.0000 13.89609337    12
CTC1_L_00180024-03
1 81647U 24530RI  26037.47803241  .00000000  00000+0  00000-0 0  9996
2 81647  95.0000 276.0000 0000000   0.0000  96.0000 13.89609337    12
CTC1_L_00180024-04
1 81648U 24232LZ  26037.47803241  .00000000  00000+0  00000-0 0  9996
2 81648  95.0000 276.0000 0000000   0.0000 186.0000 13.89609337    13
CTC1_L_00180025-01
1 81649U 24248MJ  26037.47803241  .00000000  00000+0  00000-0 0  9994
2 81649  95.0000 288.0000 0000000   0.0000 288.0000 13.89609337    10
CTC1_L_00180025-02
1 81650U 23855ZU  26037.47803241  .00000000  00000+0  00000-0 0  9999
2 81650  95.0000 288.0000 0000000   0.0000  18.0000 13.89609337    13
CTC1_L_00180025-03
1 81651U 23670A   26037.47803241  .00000000  00000+0  00000-0 0  9995
2 81651  95.0000 288.0000 0000000   0.0000 108.0000 13.89609337    14
CTC1_L_00180025-04
1 81652U 24345PZ  26037.47803241  .00000000  00000+0  00000-0 0  9996
2 81652  95.0000 288.0000 0000000   0.0000 198.0000 13.89609337    14
CTC1_L_00180026-01
1 81653U 25937CP  26037.47803241  .00000000  00000+0  00000-0 0  9995
2 81653  95.0000 300.0000 0000000   0.0000 300.0000 13.89609337    15
CTC1_L_00180026-02
1 81654U 22761HJ  26037.47803241  .00000000  00000+0  00000-0 0  9998
2 81654  95.0000 300.0000 0000000   0.0000  30.0000 13.89609337    16
CTC1_L_00180026-03
1 81655U 25310VT  26037.47803241  .00000000  00000+0  00000-0 0  9992
2 81655  95.0000 300.0000 0000000   0.0000 120.0000 13.89609337    17
CTC1_L_00180026-04
1 81656U 25879YL  26037.47803241  .00000000  00000+0  00000-0 0  9993
2 81656  95.0000 300.0000 0000000   0.0000 210.0000 13.89609337    18
CTC1_L_00180027-01
1 81657U 24880DA  26037.47803241  .00000000  00000+0  00000-0 0  9995
2 81657  95.0000 312.0000 0000000   0.0000 312.0000 13.89609337    15
CTC1_L_00180027-02
1 81658U 23301I   26037.47803241  .00000000  00000+0  00000-0 0  9993
2 81658  95.0000 312.0000 0000000   0.0000  42.0000 13.89609337    16
CTC1_L_00180027-03
1 81659U 24043HA  26037.47803241  .00000000  00000+0  00000-0 0  9998
2 81659  95.0000 312.0000 0000000   0.0000 132.0000 13.89609337    17
CTC1_L_00180027-04
1 81660U 25834HD  26037.47803241  .00000000  00000+0  00000-0 0  9999
2 81660  95.0000 312.0000 0000000   0.0000 222.0000 13.89609337    19
CTC1_L_00180028-01
1 81661U 25509TQ  26037.47803241  .00000000  00000+0  00000-0 0  9999
2 81661  95.0000 324.0000 0000000   0.0000 324.0000 13.89609337    16
CTC1_L_00180028-02
1 81662U 26582SH  26037.47803241  .00000000  00000+0  00000-0 0  9992
2 81662  95.0000 324.0000 0000000   0.0000  54.0000 13.89609337    17
CTC1_L_00180028-03
1 81663U 25232FK  26037.47803241  .00000000  00000+0  00000-0 0  9994
2 81663  95.0000 324.0000 0000000   0.0000 144.0000 13.89609337    18
CTC1_L_00180028-04
1 81664U 22503PK  26037.47803241  .00000000  00000+0  00000-0 0  9993
2 81664  95.0000 324.0000 0000000   0.0000 234.0000 13.89609337    19
CTC1_L_00180029-01
1 81665U 26452SX  26037.47803241  .00000000  00000+0  00000-0 0  9991
2 81665  95.0000 336.0000 0000000   0.0000 336.0000 13.89609337    16
CTC1_L_00180029-02
1 81666U 25517OG  26037.47803241  .00000000  00000+0  00000-0 0  9993
2 81666  95.0000 336.0000 0000000   0.0000  66.0000 13.89609337    17
CTC1_L_00180029-03
1 81667U 26245WA  26037.47803241  .00000000  00000+0  00000-0 0  9993
2 81667  95.0000 336.0000 0000000   0.0000 156.0000 13.89609337    18
CTC1_L_00180029-04
1 81668U 23174YD  26037.47803241  .00000000  00000+0  00000-0 0  9992
2 81668  95.0000 336.0000 0000000   0.0000 246.0000 13.89609337    19
CTC1_L_00180030-01
1 81669U 24609LU  26037.47803241  .00000000  00000+0  00000-0 0  9997
2 81669  95.0000 348.0000 0000000   0.0000 348.0000 13.89609337    16
CTC1_L_00180030-02
1 81670U 22372AS  26037.47803241  .00000000  00000+0  00000-0 0  9994
2 81670  95.0000 348.0000 0000000   0.0000  78.0000 13.89609337    18
CTC1_L_00180030-03
1 81671U 24520TW  26037.47803241  .00000000  00000+0  00000-0 0  9992
2 81671  95.0000 348.0000 0000000   0.0000 168.0000 13.89609337    19
CTC1_L_00180030-04
1 81672U 25790MI  26037.47803241  .00000000  00000+0  00000-0 0  9993
2 81672  95.0000 348.0000 0000000   0.0000 258.0000 13.89609337    10
